{
  "type": "FeatureCollection",
  "features": [
    {
      "type": "Feature",
      "properties": {
        "norad_id": 44873,
        "name": "CSG-1",
        "group": "resource",
        "lat": 36.95698213355771,
        "lon": 158.21466091863704,
        "alt_km": 619.2132639526926,
        "timestamp": "2025-12-08T19:31:48.485578+00:00",
        "meta_object_name": "CSG-1",
        "meta_object_id": "2019-092A",
        "meta_epoch": "2025-12-08T06:24:00.319968",
        "meta_mean_motion": 14.82155159,
        "meta_eccentricity": 0.00014671,
        "meta_inclination": 97.8812,
        "meta_ra_of_asc_node": 163.6582,
        "meta_arg_of_pericenter": 85.9834,
        "meta_mean_anomaly": 274.1546,
        "meta_ephemeris_type": 0,
        "meta_classification_type": "U",
        "meta_norad_cat_id": 44873,
        "meta_element_set_no": 999,
        "meta_rev_at_epoch": 32319,
        "meta_bstar": 0.00016231384,
        "meta_mean_motion_dot": 1.24e-05,
        "meta_mean_motion_ddot": 0,
        "tle_line1": "1 44873U 19092A   25342.26667037  .00001240  00000+0  16231-3 0  9992",
        "tle_line2": "2 44873  97.8812 163.6582 0001467  85.9834 274.1546 14.82155159323197"
      },
      "geometry": {
        "type": "Point",
        "coordinates": [
          158.21466091863704,
          36.95698213355771
        ]
      }
    },
    {
      "type": "Feature",
      "properties": {
        "norad_id": 46277,
        "name": "NEMO-HD",
        "group": "resource",
        "lat": 80.2913576078173,
        "lon": -90.21102948038558,
        "alt_km": 436.9712932982602,
        "timestamp": "2025-12-08T19:31:48.485587+00:00",
        "meta_object_name": "NEMO-HD",
        "meta_object_id": "2020-061F",
        "meta_epoch": "2025-12-08T06:38:19.702752",
        "meta_mean_motion": 15.40187576,
        "meta_eccentricity": 0.00021304,
        "meta_inclination": 97.2213,
        "meta_ra_of_asc_node": 41.4318,
        "meta_arg_of_pericenter": 61.4591,
        "meta_mean_anomaly": 298.687,
        "meta_ephemeris_type": 0,
        "meta_classification_type": "U",
        "meta_norad_cat_id": 46277,
        "meta_element_set_no": 999,
        "meta_rev_at_epoch": 29255,
        "meta_bstar": 0.0003134901,
        "meta_mean_motion_dot": 0.00012509,
        "meta_mean_motion_ddot": 0,
        "tle_line1": "1 46277U 20061F   25342.27661693  .00012509  00000+0  31349-3 0  9990",
        "tle_line2": "2 46277  97.2213  41.4318 0002130  61.4591 298.6870 15.40187576292552"
      },
      "geometry": {
        "type": "Point",
        "coordinates": [
          -90.21102948038558,
          80.2913576078173
        ]
      }
    },
    {
      "type": "Feature",
      "properties": {
        "norad_id": 46984,
        "name": "SENTINEL-6A",
        "group": "resource",
        "lat": -2.9159543070699327,
        "lon": 169.16519698202677,
        "alt_km": 1339.7924285789177,
        "timestamp": "2025-12-08T19:31:48.485596+00:00",
        "meta_object_name": "SENTINEL-6A",
        "meta_object_id": "2020-086A",
        "meta_epoch": "2025-12-08T06:25:47.973504",
        "meta_mean_motion": 12.80930415,
        "meta_eccentricity": 0.00077367,
        "meta_inclination": 66.0392,
        "meta_ra_of_asc_node": 171.5965,
        "meta_arg_of_pericenter": 269.2421,
        "meta_mean_anomaly": 90.7708,
        "meta_ephemeris_type": 0,
        "meta_classification_type": "U",
        "meta_norad_cat_id": 46984,
        "meta_element_set_no": 999,
        "meta_rev_at_epoch": 23587,
        "meta_bstar": 4.402365e-05,
        "meta_mean_motion_dot": -5.1e-07,
        "meta_mean_motion_ddot": 0,
        "tle_line1": "1 46984U 20086A   25342.26791636 -.00000051  00000+0  44024-4 0  9997",
        "tle_line2": "2 46984  66.0392 171.5965 0007736 269.2421  90.7708 12.80930415235871"
      },
      "geometry": {
        "type": "Point",
        "coordinates": [
          169.16519698202677,
          -2.9159543070699327
        ]
      }
    },
    {
      "type": "Feature",
      "properties": {
        "norad_id": 48079,
        "name": "GAOFEN-12 02",
        "group": "resource",
        "lat": -40.83060052343242,
        "lon": -16.194141504130098,
        "alt_km": 635.8586482330074,
        "timestamp": "2025-12-08T19:31:48.485605+00:00",
        "meta_object_name": "GAOFEN-12 02",
        "meta_object_id": "2021-026A",
        "meta_epoch": "2025-12-08T06:44:29.237280",
        "meta_mean_motion": 14.80667334,
        "meta_eccentricity": 0.00034395,
        "meta_inclination": 97.9849,
        "meta_ra_of_asc_node": 336.3089,
        "meta_arg_of_pericenter": 109.8327,
        "meta_mean_anomaly": 250.3256,
        "meta_ephemeris_type": 0,
        "meta_classification_type": "U",
        "meta_norad_cat_id": 48079,
        "meta_element_set_no": 999,
        "meta_rev_at_epoch": 25351,
        "meta_bstar": 0.00014158633,
        "meta_mean_motion_dot": 1.035e-05,
        "meta_mean_motion_ddot": 0,
        "tle_line1": "1 48079U 21026A   25342.28089395  .00001035  00000+0  14159-3 0  9990",
        "tle_line2": "2 48079  97.9849 336.3089 0003439 109.8327 250.3256 14.80667334253518"
      },
      "geometry": {
        "type": "Point",
        "coordinates": [
          -16.194141504130098,
          -40.83060052343242
        ]
      }
    },
    {
      "type": "Feature",
      "properties": {
        "norad_id": 48268,
        "name": "PLEIADES NEO 3",
        "group": "resource",
        "lat": 11.422928460286705,
        "lon": 53.70434928825736,
        "alt_km": 625.3515936747208,
        "timestamp": "2025-12-08T19:31:48.485614+00:00",
        "meta_object_name": "PLEIADES NEO 3",
        "meta_object_id": "2021-034A",
        "meta_epoch": "2025-12-08T06:30:43.133184",
        "meta_mean_motion": 14.81671201,
        "meta_eccentricity": 0.00013002,
        "meta_inclination": 97.8949,
        "meta_ra_of_asc_node": 54.7764,
        "meta_arg_of_pericenter": 95.8035,
        "meta_mean_anomaly": 264.3326,
        "meta_ephemeris_type": 0,
        "meta_classification_type": "U",
        "meta_norad_cat_id": 48268,
        "meta_element_set_no": 999,
        "meta_rev_at_epoch": 24938,
        "meta_bstar": 2.7174263e-05,
        "meta_mean_motion_dot": 1.62e-06,
        "meta_mean_motion_ddot": 0,
        "tle_line1": "1 48268U 21034A   25342.27133256  .00000162  00000+0  27174-4 0  9996",
        "tle_line2": "2 48268  97.8949  54.7764 0001300  95.8035 264.3326 14.81671201249386"
      },
      "geometry": {
        "type": "Point",
        "coordinates": [
          53.70434928825736,
          11.422928460286705
        ]
      }
    },
    {
      "type": "Feature",
      "properties": {
        "norad_id": 49070,
        "name": "PLEIADES NEO 4",
        "group": "resource",
        "lat": -11.75399919160667,
        "lon": -126.3472786990491,
        "alt_km": 628.5870201506877,
        "timestamp": "2025-12-08T19:31:48.485623+00:00",
        "meta_object_name": "PLEIADES NEO 4",
        "meta_object_id": "2021-073E",
        "meta_epoch": "2025-12-08T05:42:04.675968",
        "meta_mean_motion": 14.81672496,
        "meta_eccentricity": 0.0001261,
        "meta_inclination": 97.8951,
        "meta_ra_of_asc_node": 54.7394,
        "meta_arg_of_pericenter": 95.6891,
        "meta_mean_anomaly": 264.4466,
        "meta_ephemeris_type": 0,
        "meta_classification_type": "U",
        "meta_norad_cat_id": 49070,
        "meta_element_set_no": 999,
        "meta_rev_at_epoch": 23309,
        "meta_bstar": 8.5426482e-05,
        "meta_mean_motion_dot": 6.2e-06,
        "meta_mean_motion_ddot": 0,
        "tle_line1": "1 49070U 21073E   25342.23755412  .00000620  00000+0  85426-4 0  9994",
        "tle_line2": "2 49070  97.8951  54.7394 0001261  95.6891 264.4466 14.81672496233098"
      },
      "geometry": {
        "type": "Point",
        "coordinates": [
          -126.3472786990491,
          -11.75399919160667
        ]
      }
    },
    {
      "type": "Feature",
      "properties": {
        "norad_id": 49260,
        "name": "LANDSAT 9",
        "group": "resource",
        "lat": -14.943661004367598,
        "lon": -131.2267253813507,
        "alt_km": 707.3524377036329,
        "timestamp": "2025-12-08T19:31:48.485632+00:00",
        "meta_object_name": "LANDSAT 9",
        "meta_object_id": "2021-088A",
        "meta_epoch": "2025-12-08T03:48:20.428128",
        "meta_mean_motion": 14.57122737,
        "meta_eccentricity": 0.00011094,
        "meta_inclination": 98.2099,
        "meta_ra_of_asc_node": 50.3359,
        "meta_arg_of_pericenter": 94.3482,
        "meta_mean_anomaly": 265.7843,
        "meta_ephemeris_type": 0,
        "meta_classification_type": "U",
        "meta_norad_cat_id": 49260,
        "meta_element_set_no": 999,
        "meta_rev_at_epoch": 22318,
        "meta_bstar": 0.00017404713,
        "meta_mean_motion_dot": 7.39e-06,
        "meta_mean_motion_ddot": 0,
        "tle_line1": "1 49260U 21088A   25342.15856977  .00000739  00000+0  17405-3 0  9992",
        "tle_line2": "2 49260  98.2099  50.3359 0001109  94.3482 265.7843 14.57122737223186"
      },
      "geometry": {
        "type": "Point",
        "coordinates": [
          -131.2267253813507,
          -14.943661004367598
        ]
      }
    }
  ]
}